NORAD_CAT_ID,OBJECT_NAME,OBJECT_TYPE,EPOCH,MEAN_MOTION,ECCENTRICITY,INCLINATION,RA_OF_ASC_NODE,ARG_OF_PERICENTER,MEAN_ANOMALY,BSTAR,MEAN_MOTION_DOT,MEAN_MOTION_DDOT,TLE_LINE0,TLE_LINE1,TLE_LINE2,SEMIMAJOR_AXIS,PERIOD,APOGEE,PERIGEE,DECAYED
52693.0,STARLINK-3946,PAYLOAD,2024-05-23 10:57:12,15.0883155,0.0001238,53.2163,205.5755,104.4667,255.6462,-0.00013046,-2.363e-05,0.0,0 STARLINK-3946,1 52693U 22053AP  24144.45639968 -.00002363  00000-0 -13046-3 0  9995,2 52693  53.2163 205.5755 0001238 104.4667 255.6462 15.08831550111838,6917.906,95.438,540.628,538.915,0.0
52693.0,STARLINK-3946,PAYLOAD,2024-05-24 04:26:26,15.08844731,0.0001281,53.2154,202.2996,102.5689,257.5446,-0.00025343,-4.319e-05,0.0,0 STARLINK-3946,1 52693U 22053AP  24145.18503345 -.00004319  00000-0 -25343-3 0  9991,2 52693  53.2154 202.2996 0001281 102.5689 257.5446 15.08844731111940,6917.866,95.437,540.617,538.845,0.0
52693.0,STARLINK-3946,PAYLOAD,2024-05-24 09:12:36,15.08843241,0.000123,53.2155,201.4116,80.9037,279.2094,-9.3626e-05,-1.778e-05,0.0,0 STARLINK-3946,1 52693U 22053AP  24145.38375337 -.00001778  00000-0 -93626-4 0  9997,2 52693  53.2155 201.4116 0001230  80.9037 279.2094 15.08843241112379,6917.87,95.437,540.586,538.885,0.0
52693.0,STARLINK-3946,PAYLOAD,2024-05-24 20:20:18,15.08846243,0.000117,53.2162,199.3363,105.6932,254.4189,0.00015551,2.188e-05,0.0,0 STARLINK-3946,1 52693U 22053AP  24145.84743181  .00002188  00000-0  15551-3 0  9998,2 52693  53.2162 199.3363 0001170 105.6932 254.4189 15.08846243112441,6917.861,95.437,540.536,538.917,0.0
52693.0,STARLINK-3946,PAYLOAD,2024-05-25 12:14:10,15.08823052,0.000146,53.2166,196.3625,100.639,259.4766,-3.403e-05,-8.29e-06,0.0,0 STARLINK-3946,1 52693U 22053AP  24146.50984829 -.00000829  00000-0 -34030-4 0  9994,2 52693  53.2166 196.3625 0001460 100.6390 259.4766 15.08823052112144,6917.932,95.439,540.807,538.787,0.0
52693.0,STARLINK-3946,PAYLOAD,2024-05-25 13:49:33,15.0882628,0.0001503,53.2163,196.0644,107.3598,252.7558,-0.0001182,-2.168e-05,0.0,0 STARLINK-3946,1 52693U 22053AP  24146.57608684 -.00002168  00000-0 -11820-3 0  9992,2 52693  53.2163 196.0644 0001503 107.3598 252.7558 15.08826280112557,6917.922,95.438,540.827,538.748,0.0
52693.0,STARLINK-3946,PAYLOAD,2024-05-26 10:29:34,15.08816718,6.46e-05,53.2152,192.195,205.6303,154.4657,-0.00020822,-3.598e-05,0.0,0 STARLINK-3946,1 52693U 22053AP  24147.43720577 -.00003598  00000-0 -20822-3 0  9994,2 52693  53.2152 192.1950 0000646 205.6303 154.4657 15.08816718112682,6917.952,95.439,540.263,539.37,0.0
52693.0,STARLINK-3946,PAYLOAD,2024-05-27 08:44:58,15.08842299,0.0001227,53.2149,188.0356,77.9056,282.2074,0.00027849,4.147e-05,0.0,0 STARLINK-3946,1 52693U 22053AP  24148.36457025  .00004147  00000-0  27849-3 0  9997,2 52693  53.2149 188.0356 0001227  77.9056 282.2074 15.08842299112421,6917.873,95.437,540.587,538.89,0.0
52693.0,STARLINK-3946,PAYLOAD,2024-05-28 08:35:45,15.08847797,0.000128,53.2155,183.5772,77.4273,282.6862,0.00017111,2.437e-05,0.0,0 STARLINK-3946,1 52693U 22053AP  24149.35816687  .00002437  00000-0  17111-3 0  9991,2 52693  53.2155 183.5772 0001280  77.4273 282.6862 15.08847797112972,6917.857,95.437,540.607,538.836,0.0
52693.0,STARLINK-3946,PAYLOAD,2024-05-29 05:15:46,15.08845403,0.0001306,53.2158,179.7095,76.1427,283.971,8.8702e-05,1.124e-05,0.0,0 STARLINK-3946,1 52693U 22053AP  24150.21928567  .00001124  00000-0  88702-4 0  9996,2 52693  53.2158 179.7095 0001306  76.1427 283.9710 15.08845403112705,6917.864,95.437,540.632,538.825,0.0
52693.0,STARLINK-3946,PAYLOAD,2024-05-29 08:26:32,15.08844804,0.0001256,53.2157,179.115,79.4914,280.6219,7.4148e-05,8.93e-06,0.0,0 STARLINK-3946,1 52693U 22053AP  24150.35176537  .00000893  00000-0  74148-4 0  9994,2 52693  53.2157 179.1150 0001256  79.4914 280.6219 15.08844804113120,6917.866,95.437,540.6,538.862,0.0
52693.0,STARLINK-3946,PAYLOAD,2024-05-30 05:06:33,15.08842324,0.0001258,53.216,175.2462,78.8385,281.2748,7.2881e-05,8.72e-06,0.0,0 STARLINK-3946,1 52693U 22053AP  24151.21288712  .00000872  00000-0  72881-4 0  9998,2 52693  53.2160 175.2462 0001258  78.8385 281.2748 15.08842324112852,6917.873,95.437,540.609,538.868,0.0
52693.0,STARLINK-3946,PAYLOAD,2024-05-30 11:28:05,15.08841942,0.0001258,53.2164,174.0578,86.3853,273.7283,5.1525e-05,5.32e-06,0.0,0 STARLINK-3946,1 52693U 22053AP  24151.47784690  .00000532  00000-0  51525-4 0  9997,2 52693  53.2164 174.0578 0001258  86.3853 273.7283 15.08841942113299,6917.874,95.437,540.61,538.869,0.0
52693.0,STARLINK-3946,PAYLOAD,2024-05-31 11:18:52,15.08841425,0.0001306,53.2166,169.5973,90.9391,269.1751,8.0087e-05,9.87e-06,0.0,0 STARLINK-3946,1 52693U 22053AP  24152.47144606  .00000987  00000-0  80087-4 0  9994,2 52693  53.2166 169.5973 0001306  90.9391 269.1751 15.08841425113049,6917.876,95.437,540.645,538.838,0.0
52693.0,STARLINK-3946,PAYLOAD,2024-05-31 17:40:25,15.0884353,0.0001312,53.2168,168.4082,85.5501,274.5641,9.7431e-05,1.263e-05,0.0,0 STARLINK-3946,1 52693U 22053AP  24152.73640437  .00001263  00000-0  97431-4 0  9995,2 52693  53.2168 168.4082 0001312  85.5501 274.5641 15.08843530113485,6917.87,95.437,540.642,538.827,0.0
52693.0,STARLINK-3946,PAYLOAD,2024-06-01 04:48:07,15.08834691,0.0001394,53.2175,166.3275,87.9726,272.1425,4.9706e-05,5.03e-06,0.0,0 STARLINK-3946,1 52693U 22053AP  24153.20009166  .00000503  00000-0  49706-4 0  9994,2 52693  53.2175 166.3275 0001394  87.9726 272.1425 15.08834691113155,6917.897,95.438,540.726,538.797,0.0
52693.0,STARLINK-3946,PAYLOAD,2024-06-01 07:58:54,15.08835107,0.0001391,53.2173,165.7328,87.8408,272.2743,5.0904e-05,5.22e-06,0.0,0 STARLINK-3946,1 52693U 22053AP  24153.33257163  .00000522  00000-0  50904-4 0  9993,2 52693  53.2173 165.7328 0001391  87.8408 272.2743 15.08835107113571,6917.895,95.438,540.723,538.798,0.0
52693.0,STARLINK-3946,PAYLOAD,2024-06-02 09:25:04,15.08835724,0.0001399,53.2173,160.9757,90.6997,269.4156,2.4174e-05,9.7e-07,0.0,0 STARLINK-3946,1 52693U 22053AP  24154.39241483  .00000097  00000-0  24174-4 0  9995,2 52693  53.2173 160.9757 0001399  90.6997 269.4156 15.08835724113332,6917.893,95.438,540.726,538.791,0.0
52693.0,STARLINK-3946,PAYLOAD,2024-06-03 04:29:41,15.08849345,0.0001326,53.2169,157.4065,89.0087,271.1057,0.00017935,2.568e-05,0.0,0 STARLINK-3946,1 52693U 22053AP  24155.18728150  .00002568  00000-0  17935-3 0  9995,2 52693  53.2169 157.4065 0001326  89.0087 271.1057 15.08849345113459,6917.852,95.437,540.634,538.8,0.0
52693.0,STARLINK-3946,PAYLOAD,2024-06-03 09:15:50,15.08851465,0.0001313,53.2166,156.5141,88.5416,271.5727,0.00018889,2.72e-05,0.0,0 STARLINK-3946,1 52693U 22053AP  24155.38599997  .00002720  00000-0  18889-3 0  9991,2 52693  53.2166 156.5141 0001313  88.5416 271.5727 15.08851465113888,6917.845,95.437,540.619,538.802,0.0
52693.0,STARLINK-3946,PAYLOAD,2024-06-03 17:12:45,15.08857303,0.0001312,53.2164,155.0269,82.4711,277.643,0.00020012,2.9e-05,0.0,0 STARLINK-3946,1 52693U 22053AP  24155.71719437  .00002900  00000-0  20012-3 0  9992,2 52693  53.2164 155.0269 0001312  82.4711 277.6430 15.08857303113932,6917.828,95.436,540.6,538.785,0.0
52693.0,STARLINK-3946,PAYLOAD,2024-06-04 07:31:15,15.08842237,0.0001373,53.216,152.3499,89.2414,270.8736,0.00010117,1.323e-05,0.0,0 STARLINK-3946,1 52693U 22053AP  24156.31336821  .00001323  00000-0  10117-3 0  9994,2 52693  53.2160 152.3499 0001373  89.2414 270.8736 15.08842237113625,6917.874,95.437,540.688,538.789,0.0
52693.0,STARLINK-3946,PAYLOAD,2024-06-04 17:03:33,15.08844458,0.0001447,53.2147,150.5663,87.0869,273.0288,4.9402e-05,4.98e-06,0.0,0 STARLINK-3946,1 52693U 22053AP  24156.71080388  .00000498  00000-0  49402-4 0  9994,2 52693  53.2147 150.5663 0001447  87.0869 273.0288 15.08844458114080,6917.867,95.437,540.733,538.731,0.0
52693.0,STARLINK-3946,PAYLOAD,2024-06-05 08:57:25,15.08840149,0.0001547,53.2156,147.5912,94.8114,265.3054,-2.3489e-05,-6.62e-06,0.0,0 STARLINK-3946,1 52693U 22053AP  24157.37320632 -.00000662  00000-0 -23489-4 0  9998,2 52693  53.2156 147.5912 0001547  94.8114 265.3054 15.08840149113787,6917.88,95.438,540.815,538.675,0.0
52693.0,STARLINK-3946,PAYLOAD,2024-06-05 16:54:20,15.08842384,0.0001561,53.2158,146.1045,94.5513,265.5657,4.2132e-05,3.83e-06,0.0,0 STARLINK-3946,1 52693U 22053AP  24157.70440594  .00000383  00000-0  42132-4 0  9999,2 52693  53.2158 146.1045 0001561  94.5513 265.5657 15.08842384114232,6917.873,95.437,540.818,538.658,0.0
52693.0,STARLINK-3946,PAYLOAD,2024-06-06 05:37:26,15.08830946,0.0001655,53.2164,143.7256,97.1361,262.9819,0.00016307,2.308e-05,0.0,0 STARLINK-3946,1 52693U 22053AP  24158.23433481  .00002308  00000-0  16307-3 0  9998,2 52693  53.2164 143.7256 0001655  97.1361 262.9819 15.08830946113916,6917.908,95.438,540.918,538.628,0.0
52693.0,STARLINK-3946,PAYLOAD,2024-06-08 05:19:00,15.08844085,0.0001571,53.2168,134.8075,94.2726,265.8445,0.00019815,2.867e-05,0.0,0 STARLINK-3946,1 52693U 22053AP  24160.22153291  .00002867  00000-0  19815-3 0  9995,2 52693  53.2168 134.8075 0001571  94.2726 265.8445 15.08844085114210,6917.868,95.437,540.82,538.646,0.0
52693.0,STARLINK-3946,PAYLOAD,2024-06-08 22:48:15,15.08838074,0.0001613,53.2169,131.5381,96.5236,263.5939,3.0074e-05,1.91e-06,0.0,0 STARLINK-3946,1 52693U 22053AP  24160.95017595  .00000191  00000-0  30074-4 0  9990,2 52693  53.2169 131.5381 0001613  96.5236 263.5939 15.08838074114723,6917.886,95.438,540.867,538.635,0.0
52693.0,STARLINK-3946,PAYLOAD,2024-06-09 05:09:48,15.08829464,0.0001521,53.2178,130.3474,92.2265,267.8901,-1.6928e-05,-5.57e-06,0.0,0 STARLINK-3946,1 52693U 22053AP  24161.21514605 -.00000557  00000-0 -16928-4 0  9994,2 52693  53.2178 130.3474 0001521  92.2265 267.8901 15.08829464114365,6917.913,95.438,540.83,538.725,0.0
52693.0,STARLINK-3946,PAYLOAD,2024-06-09 14:42:07,15.0883473,0.0001492,53.218,128.5627,88.1901,271.9262,2.3436e-05,8.5e-07,0.0,0 STARLINK-3946,1 52693U 22053AP  24161.61258328  .00000085  00000-0  23436-4 0  9991,2 52693  53.2180 128.5627 0001492  88.1901 271.9262 15.08834730114824,6917.896,95.438,540.794,538.729,0.0
